NORAD_CAT_ID,OBJECT_NAME,OBJECT_TYPE,EPOCH,MEAN_MOTION,ECCENTRICITY,INCLINATION,RA_OF_ASC_NODE,ARG_OF_PERICENTER,MEAN_ANOMALY,BSTAR,MEAN_MOTION_DOT,MEAN_MOTION_DDOT,TLE_LINE0,TLE_LINE1,TLE_LINE2,SEMIMAJOR_AXIS,PERIOD,APOGEE,PERIGEE,DECAYED
50195.0,STARLINK-3266,PAYLOAD,2022-12-04 13:52:49,15.08835609,0.0002518,53.2152,186.2366,41.0577,319.0604,4.3257e-05,4e-06,0.0,0 STARLINK-3266,1 50195U 21125AR  22338.57835364  .00000400  00000-0  43257-4 0  9999,2 50195  53.2152 186.2366 0002518  41.0577 319.0604 15.08835609 56911,6917.894,95.438,541.501,538.0169999999998,0.0
50195.0,STARLINK-3266,PAYLOAD,2022-12-04 20:14:22,15.08840582,0.0002593,53.2155,185.0469,41.3385,318.7803,0.00013203,1.814e-05,0.0,0 STARLINK-3266,1 50195U 21125AR  22338.84331309  .00001814  00000-0  13203-3 0  9996,2 50195  53.2155 185.0469 0002593  41.3385 318.7803 15.08840582 56955,6917.879,95.438,541.5369999999998,537.95,0.0
50195.0,STARLINK-3266,PAYLOAD,2022-12-05 07:22:04,15.08844182,0.0002637,53.2152,182.9658,41.6186,318.5007,0.00020045,2.904e-05,0.0,0 STARLINK-3266,1 50195U 21125AR  22339.30699172  .00002904  00000-0  20045-3 0  9996,2 50195  53.2152 182.9658 0002637  41.6186 318.5007 15.08844182 56548,6917.868,95.437,541.557,537.908,0.0
50195.0,STARLINK-3266,PAYLOAD,2022-12-05 20:05:09,15.08848114,0.0002706,53.2152,180.5866,44.0895,316.0312,0.00045275,6.926e-05,0.0,0 STARLINK-3266,1 50195U 21125AR  22339.83691123  .00006926  00000-0  45275-3 0  9992,2 50195  53.2152 180.5866 0002706  44.0895 316.0312 15.08848114 57108,6917.856,95.437,541.5930000000002,537.849,0.0
50195.0,STARLINK-3266,PAYLOAD,2022-12-06 00:51:18,15.08852482,0.0002709,53.2151,179.6945,42.3256,317.7945,0.00040701,6.198e-05,0.0,0 STARLINK-3266,1 50195U 21125AR  22340.03562877  .00006198  00000-0  40701-3 0  9999,2 50195  53.2151 179.6945 0002709  42.3256 317.7945 15.08852482 57135,6917.842,95.437,541.581,537.8330000000002,0.0
50195.0,STARLINK-3266,PAYLOAD,2022-12-06 19:55:56,15.0884033,0.0002738,53.2152,176.1259,44.3488,315.7723,2.4771e-05,1.06e-06,0.0,0 STARLINK-3266,1 50195U 21125AR  22340.83051053  .00000106  00000-0  24771-4 0  9999,2 50195  53.2152 176.1259 0002738  44.3488 315.7723 15.08840330 57251,6917.879,95.438,541.638,537.85,0.0
50195.0,STARLINK-3266,PAYLOAD,2022-12-06 23:06:42,15.08839721,0.0002728,53.2154,175.5312,44.7644,315.3568,4.3542e-05,4.05e-06,0.0,0 STARLINK-3266,1 50195U 21125AR  22340.96299141  .00000405  00000-0  43542-4 0  9994,2 50195  53.2154 175.5312 0002728  44.7644 315.3568 15.08839721 56796,6917.880999999999,95.438,541.633,537.859,0.0
50195.0,STARLINK-3266,PAYLOAD,2022-12-07 19:46:43,15.08842613,0.0002747,53.2154,171.6652,46.4737,313.6483,4.7618e-05,4.69e-06,0.0,0 STARLINK-3266,1 50195U 21125AR  22341.82410960  .00000469  00000-0  47618-4 0  9992,2 50195  53.2154 171.6652 0002747  46.4737 313.6483 15.08842613 57403,6917.871999999999,95.437,541.638,537.837,0.0
50195.0,STARLINK-3266,PAYLOAD,2022-12-08 05:19:02,15.08834205,0.0002736,53.2167,169.8808,44.9441,315.1772,-6.245e-05,-1.282e-05,0.0,0 STARLINK-3266,1 50195U 21125AR  22342.22155705 -.00001282  00000-0 -62450-4 0  9997,2 50195  53.2167 169.8808 0002736  44.9441 315.1772 15.08834205 56980,6917.898,95.438,541.656,537.87,0.0
50195.0,STARLINK-3266,PAYLOAD,2022-12-08 13:15:58,15.08831275,0.0002608,53.2163,168.3943,44.9663,315.1539,-5.0985e-06,-3.700000000000001e-06,0.0,0 STARLINK-3266,1 50195U 21125AR  22342.55276056 -.00000370  00000-0 -50985-5 0  9994,2 50195  53.2163 168.3943 0002608  44.9663 315.1539 15.08831275 57519,6917.906999999997,95.438,541.576,537.9680000000002,0.0
50195.0,STARLINK-3266,PAYLOAD,2022-12-08 19:37:31,15.08830508,0.0002645,53.2163,167.2051,44.5371,315.5833,3.7623e-05,3.1e-06,0.0,0 STARLINK-3266,1 50195U 21125AR  22342.81772160  .00000310  00000-0  37623-4 0  9995,2 50195  53.2163 167.2051 0002645  44.5371 315.5833 15.08830508 57553,6917.909000000002,95.438,541.604,537.945,0.0
50195.0,STARLINK-3266,PAYLOAD,2022-12-09 05:09:49,15.08834158,0.0002696,53.2164,165.4207,45.8376,314.2838,6.4309e-05,7.35e-06,0.0,0 STARLINK-3266,1 50195U 21125AR  22343.21516126  .00000735  00000-0  64309-4 0  9990,2 50195  53.2164 165.4207 0002696  45.8376 314.2838 15.08834158 57615,6917.898,95.438,541.628,537.898,0.0
50195.0,STARLINK-3266,PAYLOAD,2022-12-09 19:28:18,15.0883823,0.00027,53.2166,162.746,44.1069,316.0138,6.3803e-05,7.27e-06,0.0,0 STARLINK-3266,1 50195U 21125AR  22343.81132087  .00000727  00000-0  63803-4 0  9995,2 50195  53.2166 162.7460 0002700  44.1069 316.0138 15.08838230 57220,6917.886,95.438,541.619,537.883,0.0
50195.0,STARLINK-3266,PAYLOAD,2022-12-10 11:22:08,15.08847638,0.0003006,53.2171,159.7708,42.7296,317.3929,0.00023392,3.437e-05,0.0,0 STARLINK-3266,1 50195U 21125AR  22344.47371081  .00003437  00000-0  23392-3 0  9996,2 50195  53.2171 159.7708 0003006  42.7296 317.3929 15.08847638 57328,6917.857,95.437,541.802,537.643,0.0
50195.0,STARLINK-3266,PAYLOAD,2022-12-10 19:19:04,15.08845515,0.0002504,53.2166,158.2832,48.1664,311.9541,0.00017114,2.437e-05,0.0,0 STARLINK-3266,1 50195U 21125AR  22344.80491172  .00002437  00000-0  17114-3 0  9991,2 50195  53.2166 158.2832 0002504  48.1664 311.9541 15.08845515 57855,6917.864000000001,95.437,541.461,537.996,0.0
50195.0,STARLINK-3266,PAYLOAD,2022-12-11 11:12:56,15.08833768,0.0002621,53.2179,155.3091,46.4246,313.6964,3.1153000000000005e-05,2.07e-06,0.0,0 STARLINK-3266,1 50195U 21125AR  22345.46732533  .00000207  00000-0  31153-4 0  9996,2 50195  53.2179 155.3091 0002621  46.4246 313.6964 15.08833768 57474,6917.899,95.438,541.578,537.951,0.0
50195.0,STARLINK-3266,PAYLOAD,2022-12-11 20:45:15,15.08844355,0.0003117,53.2176,153.5272,36.5163,323.6041,-7.482e-06,-4.08e-06,0.0,0 STARLINK-3266,1 50195U 21125AR  22345.86476124 -.00000408  00000-0 -74820-5 0  9995,2 50195  53.2176 153.5272 0003117  36.5163 323.6041 15.08844355 58013,6917.8669999999975,95.437,541.888,537.576,0.0
50195.0,STARLINK-3266,PAYLOAD,2022-12-12 11:03:45,15.08819893,0.0002873,53.2174,150.8493,47.0459,313.0773,-0.0001508,-2.687e-05,0.0,0 STARLINK-3266,1 50195U 21125AR  22346.46094374 -.00002687  00000-0 -15080-3 0  9997,2 50195  53.2174 150.8493 0002873  47.0459 313.0773 15.08819893 57629,6917.941999999999,95.439,541.794,537.819,0.0
50195.0,STARLINK-3266,PAYLOAD,2022-12-12 19:00:42,15.08811352,0.0002245,53.2189,149.3631,40.73,319.3859,-0.0002153,-3.711e-05,0.0,0 STARLINK-3266,1 50195U 21125AR  22346.79215442 -.00003711  00000-0 -21530-3 0  9990,2 50195  53.2189 149.3631 0002245  40.7300 319.3859 15.08811352 58155,6917.968000000003,95.439,541.386,538.28,0.0
50195.0,STARLINK-3266,PAYLOAD,2022-12-13 04:32:59,15.08836728,0.0002568,53.2187,147.5783,39.4084,320.7095,1.5401e-05,-4.3e-07,0.0,0 STARLINK-3266,1 50195U 21125AR  22347.18957698 -.00000043  00000-0  15401-4 0  9995,2 50195  53.2187 147.5783 0002568  39.4084 320.7095 15.08836728 57738,6917.89,95.438,541.5319999999998,537.979,0.0
50195.0,STARLINK-3266,PAYLOAD,2022-12-13 10:54:33,15.08820718,0.0002941,53.2174,146.3892,46.753,313.3707,-6.152000000000001e-06,-3.86e-06,0.0,0 STARLINK-3266,1 50195U 21125AR  22347.45455366 -.00000386  00000-0 -61520-5 0  9995,2 50195  53.2174 146.3892 0002941  46.7530 313.3707 15.08820718 58252,6917.939,95.439,541.839,537.77,0.0
50195.0,STARLINK-3266,PAYLOAD,2022-12-13 18:51:29,15.08816305,0.0002976,53.2167,144.9024,44.7968,315.3264,-2.6761e-05,-7.14e-06,0.0,0 STARLINK-3266,1 50195U 21125AR  22347.78576237 -.00000714  00000-0 -26761-4 0  9994,2 50195  53.2167 144.9024 0002976  44.7968 315.3264 15.08816305 57825,6917.953,95.439,541.877,537.759,0.0
50195.0,STARLINK-3266,PAYLOAD,2022-12-14 10:45:21,15.08815393,0.0003016,53.2155,141.9294,42.8606,317.2621,0.0003801,5.762e-05,0.0,0 STARLINK-3266,1 50195U 21125AR  22348.44816297  .00005762  00000-0  38010-3 0  9996,2 50195  53.2155 141.9294 0003016  42.8606 317.2621 15.08815393 57927,6917.956,95.439,541.9069999999998,537.734,0.0
50195.0,STARLINK-3266,PAYLOAD,2022-12-14 17:06:52,15.08833833,0.000279,53.2171,140.7393,33.4697,326.6471,0.0004657,7.13e-05,0.0,0 STARLINK-3266,1 50195U 21125AR  22348.71311324  .00007130  00000-0  46570-3 0  9998,2 50195  53.2171 140.7393 0002790  33.4697 326.6471 15.08833833 58440,6917.899,95.438,541.694,537.8340000000002,0.0
50195.0,STARLINK-3266,PAYLOAD,2022-12-15 10:36:04,15.08868213,0.000289,53.2155,137.4687,37.5839,322.5355,0.0004953,7.609e-05,0.0,0 STARLINK-3266,1 50195U 21125AR  22349.44172355  .00007609  00000-0  49530-3 0  9998,2 50195  53.2155 137.4687 0002890  37.5839 322.5355 15.08868213 58553,6917.794,95.436,541.658,537.66,0.0
50195.0,STARLINK-3266,PAYLOAD,2022-12-15 13:46:51,15.08866161,0.0002708,53.2153,136.8714,38.7976,321.321,0.00039227,5.965e-05,0.0,0 STARLINK-3266,1 50195U 21125AR  22349.57420431  .00005965  00000-0  39227-3 0  9998,2 50195  53.2153 136.8714 0002708  38.7976 321.3210 15.08866161 58094,6917.8,95.436,541.539,537.7919999999998,0.0
50195.0,STARLINK-3266,PAYLOAD,2022-12-15 20:08:25,15.08837191,0.000281,53.216,135.6849,34.2809,325.8364,0.0001797,2.572e-05,0.0,0 STARLINK-3266,1 50195U 21125AR  22349.83918740  .00002572  00000-0  17970-3 0  9994,2 50195  53.2160 135.6849 0002810  34.2809 325.8364 15.08837191 58616,6917.889,95.438,541.698,537.81,0.0
50195.0,STARLINK-3266,PAYLOAD,2022-12-16 10:26:53,15.08852014,0.0002692,53.2169,133.0075,28.4197,331.6941,1.1869e-05,-1e-06,0.0,0 STARLINK-3266,1 50195U 21125AR  22350.43533900 -.00000100  00000-0  11869-4 0  9991,2 50195  53.2169 133.0075 0002692  28.4197 331.6941 15.08852014 58225,6917.844,95.437,541.571,537.846,0.0
50195.0,STARLINK-3266,PAYLOAD,2022-12-16 19:59:10,15.08860468,0.0002783,53.2156,131.2237,30.8845,329.2311,1.9663e-05,2.5e-07,0.0,0 STARLINK-3266,1 50195U 21125AR  22350.83276348  .00000025  00000-0  19663-4 0  9990,2 50195  53.2156 131.2237 0002783  30.8845 329.2311 15.08860468 58281,6917.818,95.436,541.6080000000002,537.758,0.0
